PROBA-1                 
1 26958U 01049B   22347.47872379  .00001255  00000+0  10892-3 0  9994
2 26958  97.8484 307.6054 0071927 106.3840 254.5304 14.96952940151183
BIRD 2                  
1 26959U 01049C   22347.25727033  .00025528  00000+0  45230-3 0  9990
2 26959  97.7646  91.8082 0006557  89.1587 271.0415 15.50239863480825
CUTE-1 (CO-55)          
1 27844U 03031E   22347.29745008  .00000322  00000+0  16359-3 0  9998
2 27844  98.6793 352.3018 0008986 308.0538  51.9828 14.22557465  9305
CUBESAT XI-IV (CO-57)   
1 27848U 03031J   22347.45761562  .00000251  00000+0  13328-3 0  9997
2 27848  98.6834 352.9371 0009044 323.5376  36.5185 14.22099725  9104
GENESIS 1               
1 29252U 06029A   22347.57823898  .00005224  00000+0  22641-3 0  9995
2 29252  64.5201 202.1760 0048329 235.4347 124.2213 15.22503492906229
FALCONSAT-3             
1 30776U 07006E   22346.92523997  .00200111  00000+0  10319-2 0  9999
2 30776  35.4235 155.3170 0007591   5.7616 354.3210 15.79549840877514
GENESIS 2               
1 31789U 07028A   22347.12699080  .00007072  00000+0  30885-3 0  9990
2 31789  64.4958 247.3105 0059022 287.8995  71.5699 15.21347755853063
APRIZESAT 4             
1 35684U 09041D   22347.02216767  .00000589  00000+0  84248-4 0  9990
2 35684  98.3022   6.7384 0047502 137.6821 222.8070 14.79866186721474
APRIZESAT 3             
1 35686U 09041F   22347.22772222  .00001165  00000+0  12696-3 0  9995
2 35686  98.1027  77.8545 0070739 322.8735  36.7599 14.88298283725195
PROBA-2                 
1 36037U 09059B   22347.43883663  .00000283  00000+0  78690-4 0  9997
2 36037  98.2207 170.6919 0012247 278.0157  81.9649 14.53344521695254
APRIZESAT 5             
1 37792U 11044E   22347.42189832  .00000700  00000+0  10704-3 0  9994
2 37792  98.2989 227.8660 0058009 152.5187 207.9110 14.75996324609394
APRIZESAT 6             
1 37793U 11044F   22347.19531559  .00000704  00000+0  11659-3 0  9990
2 37793  98.3766 205.1319 0045777 207.8863 264.7776 14.72980781608173
PROBA-V                 
1 39159U 13021A   22347.52009739  .00000050  00000+0  40182-4 0  9990
2 39159  98.3386  14.2181 0003070 293.8434  66.2423 14.23064291498798
STPSAT-3                
1 39380U 13064A   22347.53145188  .00078304  00000+0  95783-3 0  9996
2 39380  40.4983  30.4098 0010024 154.7529 205.3785 15.59314350507094
APRIZESAT 7             
1 39416U 13066A   22347.43259065  .00001006  00000+0  12285-3 0  9998
2 39416  97.5955 318.8574 0041656 126.9276 233.5767 14.84793888490596
APRIZESAT 8             
1 39425U 13066K   22347.13480986  .00000754  00000+0  99567-4 0  9991
2 39425  97.6528 310.3705 0051250 173.6606 186.5268 14.81912775489421
BUGSAT-1 (TITA)         
1 40014U 14033E   22347.59637394  .00002790  00000+0  24252-3 0  9999
2 40014  98.1454 353.4550 0030184 161.2131 199.0198 14.97537945462944
SAUDISAT 4              
1 40016U 14033G   22347.51829773  .00000622  00000+0  96575-4 0  9997
2 40016  97.6342 172.5104 0046546 280.8270  78.7704 14.75736568456804
APRIZESAT 9             
1 40018U 14033J   22347.44947759  .00000486  00000+0  85194-4 0  9999
2 40018  97.7295 148.6285 0070805   0.0375   0.0825 14.70454502454957
APRIZESAT 10            
1 40019U 14033K   22347.42412038  .00000428  00000+0  79790-4 0  9996
2 40019  97.7890 138.6741 0084666  46.0051 314.8093 14.67486845454040
TDS 1                   
1 40076U 14037H   22347.21889573  .00003357  00000+0  38625-3 0  9997
2 40076  98.3649 229.5420 0005800 205.6477 154.4450 14.86484296456253
TIANTUO 2               
1 40144U 14053B   22347.51967553  .00008038  00000+0  20224-3 0  9996
2 40144  97.1810  64.0059 0008487 272.4075 182.7747 15.40157980462636
TECHNOSAT               
1 42829U 17042E   22347.14005490  .00001667  00000+0  16763-3 0  9995
2 42829  97.3986 190.7076 0015060 125.2715 234.9916 14.92375412294731
FLYING LAPTOP           
1 42831U 17042G   22347.53392269  .00002346  00000+0  23492-3 0  9996
2 42831  97.3999 191.4198 0014964 124.6662 235.6010 14.92198099294790
HAWK-A                  
1 43765U 18099H   22347.50163473  .00001956  00000+0  17124-3 0  9997
2 43765  97.5982  50.8493 0015078  33.3005 326.9163 14.97759415219937
HAWK-B                  
1 43794U 18099AN  22347.43522229  .00002152  00000+0  18794-3 0  9992
2 43794  97.5982  50.7846 0015108  33.8573 326.3610 14.97756094219918
HAWK-C                  
1 43799U 18099AT  22347.43500759  .00002120  00000+0  18518-3 0  9990
2 43799  97.5980  50.6896 0015024  33.6139 326.6034 14.97757618220668
SALSAT                  
1 46495U 20068K   22347.42203881  .00002749  00000+0  19524-3 0  9995
2 46495  97.7499 289.0420 0017427  36.0395 324.2003 15.05460539121104
